start=new Date('2023-04-02T00:00:00.000Z').valueOf();
sats=[{"SITE":"AFETR","APOAPSIS":"548.215","INCLINATION":"53.0522","CENTER_NAME":"EARTH","EPOCH":"2023-04-01T17:44:59.819136","NORAD_CAT_ID":"48018","REV_AT_EPOCH":"11305","FILE":"3877516","ECCENTRICITY":"0.00013600","PERIOD":"95.593","CLASSIFICATION_TYPE":"U","TLE_LINE2":"2 48018  53.0522  98.4783 0001360  87.8852 272.2293 15.06380398113057","COUNTRY_CODE":"US","EPHEMERIS_TYPE":"0","MEAN_ELEMENT_THEORY":"SGP4","MEAN_MOTION":"15.06380398","MEAN_ANOMALY":"272.2293","GP_ID":"229277226","PERIAPSIS":"546.332","BSTAR":"0.00130350000000","REF_FRAME":"TEME","SEMIMAJOR_AXIS":"6925.409","OBJECT_TYPE":"PAYLOAD","OBJECT_ID":"2021-024AT","TIME_SYSTEM":"UTC","RA_OF_ASC_NODE":"98.4783","MEAN_MOTION_DOT":"0.00019177","MEAN_MOTION_DDOT":"0.0000000000000","DECAY_DATE":null,"ELEMENT_SET_NO":"999","TLE_LINE1":"1 48018U 21024AT  23091.73958124  .00019177  00000-0  13035-2 0  9993","RCS_SIZE":"LARGE","OBJECT_NAME":"STARLINK-2282","ARG_OF_PERICENTER":"87.8852","LAUNCH_DATE":"2021-03-24"},{"TIME_SYSTEM":"UTC","MEAN_MOTION_DOT":"0.00012223","RA_OF_ASC_NODE":"88.5067","MEAN_MOTION_DDOT":"0.0000000000000","OBJECT_NAME":"STARLINK-2285","ARG_OF_PERICENTER":"100.3091","ELEMENT_SET_NO":"999","DECAY_DATE":null,"TLE_LINE1":"1 48019U 21024AU  23091.68887107  .00012223  00000-0  83810-3 0  9994","RCS_SIZE":"LARGE","LAUNCH_DATE":"2021-03-24","APOAPSIS":"548.429","INCLINATION":"53.0550","CENTER_NAME":"EARTH","EPOCH":"2023-04-01T16:31:58.460448","SITE":"AFETR","FILE":"3877516","ECCENTRICITY":"0.00017440","NORAD_CAT_ID":"48019","REV_AT_EPOCH":"11312","MEAN_ANOMALY":"259.8095","PERIOD":"95.592","TLE_LINE2":"2 48019  53.0550  88.5067 0001744 100.3091 259.8095 15.06397503113121","EPHEMERIS_TYPE":"0","COUNTRY_CODE":"US","CLASSIFICATION_TYPE":"U","MEAN_ELEMENT_THEORY":"SGP4","MEAN_MOTION":"15.06397503","SEMIMAJOR_AXIS":"6925.356","OBJECT_TYPE":"PAYLOAD","OBJECT_ID":"2021-024AU","PERIAPSIS":"546.013","GP_ID":"229277476","BSTAR":"0.00083810000000","REF_FRAME":"TEME"},{"OBJECT_NAME":"STARLINK-2294","ARG_OF_PERICENTER":"106.8872","ELEMENT_SET_NO":"999","DECAY_DATE":null,"TLE_LINE1":"1 48020U 21024AV  23091.26732948  .00032327  00000-0  21784-2 0  9990","RCS_SIZE":"LARGE","LAUNCH_DATE":"2021-03-24","TIME_SYSTEM":"UTC","MEAN_MOTION_DOT":"0.00032327","RA_OF_ASC_NODE":"45.7905","MEAN_MOTION_DDOT":"0.0000000000000","MEAN_ANOMALY":"253.2267","PERIOD":"95.591","EPHEMERIS_TYPE":"0","TLE_LINE2":"2 48020  53.0534  45.7905 0001371 106.8872 253.2267 15.06413787113688","COUNTRY_CODE":"US","CLASSIFICATION_TYPE":"U","MEAN_ELEMENT_THEORY":"SGP4","MEAN_MOTION":"15.06413787","SEMIMAJOR_AXIS":"6925.306","OBJECT_ID":"2021-024AV","OBJECT_TYPE":"PAYLOAD","PERIAPSIS":"546.222","GP_ID":"229244447","REF_FRAME":"TEME","BSTAR":"0.00217840000000","APOAPSIS":"548.121","INCLINATION":"53.0534","CENTER_NAME":"EARTH","EPOCH":"2023-04-01T06:24:57.267072","SITE":"AFETR","FILE":"3877270","ECCENTRICITY":"0.00013710","NORAD_CAT_ID":"48020","REV_AT_EPOCH":"11368"},{"OBJECT_NAME":"STARLINK-2301","ARG_OF_PERICENTER":"103.2102","DECAY_DATE":null,"ELEMENT_SET_NO":"999","TLE_LINE1":"1 48021U 21024AW  23091.27973060  .00034066  00000-0  22954-2 0  9996","RCS_SIZE":"LARGE","LAUNCH_DATE":"2021-03-24","TIME_SYSTEM":"UTC","RA_OF_ASC_NODE":"50.3387","MEAN_MOTION_DOT":"0.00034066","MEAN_MOTION_DDOT":"0.0000000000000","MEAN_ANOMALY":"256.9048","PERIOD":"95.593","TLE_LINE2":"2 48021  53.0532  50.3387 0001436 103.2102 256.9048 15.06390754113160","EPHEMERIS_TYPE":"0","COUNTRY_CODE":"US","CLASSIFICATION_TYPE":"U","MEAN_ELEMENT_THEORY":"SGP4","MEAN_MOTION":"15.06390754","SEMIMAJOR_AXIS":"6925.377","OBJECT_TYPE":"PAYLOAD","OBJECT_ID":"2021-024AW","PERIAPSIS":"546.247","GP_ID":"229252653","BSTAR":"0.00229540000000","REF_FRAME":"TEME","APOAPSIS":"548.236","INCLINATION":"53.0532","CENTER_NAME":"EARTH","EPOCH":"2023-04-01T06:42:48.723840","SITE":"AFETR","FILE":"3877414","ECCENTRICITY":"0.00014360","NORAD_CAT_ID":"48021","REV_AT_EPOCH":"11316"},{"ARG_OF_PERICENTER":"83.4706","OBJECT_NAME":"STARLINK-2298","ELEMENT_SET_NO":"999","DECAY_DATE":null,"TLE_LINE1":"1 48022U 21024AX  23091.77183011  .00019226  00000-0  13064-2 0  9994","RCS_SIZE":"LARGE","LAUNCH_DATE":"2021-03-24","TIME_SYSTEM":"UTC","MEAN_MOTION_DOT":"0.00019226","RA_OF_ASC_NODE":"108.4126","MEAN_MOTION_DDOT":"0.0000000000000","MEAN_ANOMALY":"276.6445","TLE_LINE2":"2 48022  53.0526 108.4126 0001419  83.4706 276.6445 15.06390315112915","COUNTRY_CODE":"US","CLASSIFICATION_TYPE":"U","EPHEMERIS_TYPE":"0","PERIOD":"95.593","MEAN_MOTION":"15.06390315","MEAN_ELEMENT_THEORY":"SGP4","SEMIMAJOR_AXIS":"6925.378","OBJECT_TYPE":"PAYLOAD","OBJECT_ID":"2021-024AX","PERIAPSIS":"546.261","GP_ID":"229276726","REF_FRAME":"TEME","BSTAR":"0.00130640000000","INCLINATION":"53.0526","CENTER_NAME":"EARTH","APOAPSIS":"548.226","EPOCH":"2023-04-01T18:31:26.121504","SITE":"AFETR","FILE":"3877516","ECCENTRICITY":"0.00014190","REV_AT_EPOCH":"11291","NORAD_CAT_ID":"48022"},{"TIME_SYSTEM":"UTC","RA_OF_ASC_NODE":"108.1809","MEAN_MOTION_DOT":"0.00018585","MEAN_MOTION_DDOT":"0.0000000000000","ARG_OF_PERICENTER":"83.6291","OBJECT_NAME":"STARLINK-2292","ELEMENT_SET_NO":"999","DECAY_DATE":null,"TLE_LINE1":"1 48023U 21024AY  23091.76075209  .00018585  00000-0  12639-2 0  9997","RCS_SIZE":"LARGE","LAUNCH_DATE":"2021-03-24","INCLINATION":"53.0520","CENTER_NAME":"EARTH","APOAPSIS":"548.281","EPOCH":"2023-04-01T18:15:28.980576","SITE":"AFETR","FILE":"3877516","ECCENTRICITY":"0.00014620","REV_AT_EPOCH":"11291","NORAD_CAT_ID":"48023","MEAN_ANOMALY":"276.4865","COUNTRY_CODE":"US","TLE_LINE2":"2 48023  53.0520 108.1809 0001462  83.6291 276.4865 15.06382024112916","CLASSIFICATION_TYPE":"U","EPHEMERIS_TYPE":"0","PERIOD":"95.593","MEAN_MOTION":"15.06382024","MEAN_ELEMENT_THEORY":"SGP4","SEMIMAJOR_AXIS":"6925.404","OBJECT_ID":"2021-024AY","OBJECT_TYPE":"PAYLOAD","GP_ID":"229276976","PERIAPSIS":"546.256","REF_FRAME":"TEME","BSTAR":"0.00126390000000"},{"REV_AT_EPOCH":"11276","NORAD_CAT_ID":"48026","ECCENTRICITY":"0.00016890","FILE":"3877270","SITE":"AFETR","EPOCH":"2023-04-01T14:34:32.251008","INCLINATION":"53.0531","CENTER_NAME":"EARTH","APOAPSIS":"548.428","REF_FRAME":"TEME","BSTAR":"0.00054017000000","GP_ID":"229244948","PERIAPSIS":"546.088","OBJECT_ID":"2021-024BB","OBJECT_TYPE":"PAYLOAD","SEMIMAJOR_AXIS":"6925.393","MEAN_MOTION":"15.06385507","MEAN_ELEMENT_THEORY":"SGP4","COUNTRY_CODE":"US","TLE_LINE2":"2 48026  53.0531 113.8714 0001689  96.6185 263.4997 15.06385507112760","EPHEMERIS_TYPE":"0","CLASSIFICATION_TYPE":"U","PERIOD":"95.593","MEAN_ANOMALY":"263.4997","MEAN_MOTION_DDOT":"0.0000000000000","RA_OF_ASC_NODE":"113.8714","MEAN_MOTION_DOT":"0.00007770","TIME_SYSTEM":"UTC","LAUNCH_DATE":"2021-03-24","RCS_SIZE":"LARGE","TLE_LINE1":"1 48026U 21024BB  23091.60731772  .00007770  00000-0  54017-3 0  9998","DECAY_DATE":null,"ELEMENT_SET_NO":"999","ARG_OF_PERICENTER":"96.6185","OBJECT_NAME":"STARLINK-2278"},{"LAUNCH_DATE":"2021-03-24","RCS_SIZE":"LARGE","TLE_LINE1":"1 48027U 21024BC  23091.29983457  .00021781  00000-0  14587-2 0  9998","ELEMENT_SET_NO":"999","DECAY_DATE":null,"ARG_OF_PERICENTER":"87.5850","OBJECT_NAME":"STARLINK-2300","MEAN_MOTION_DDOT":"0.0000000000000","MEAN_MOTION_DOT":"0.00021781","RA_OF_ASC_NODE":"90.2321","TIME_SYSTEM":"UTC","BSTAR":"0.00145870000000","REF_FRAME":"TEME","GP_ID":"229243696","PERIAPSIS":"544.709","OBJECT_TYPE":"PAYLOAD","OBJECT_ID":"2021-024BC","SEMIMAJOR_AXIS":"6923.958","MEAN_MOTION":"15.06853899","MEAN_ELEMENT_THEORY":"SGP4","TLE_LINE2":"2 48027  53.0538  90.2321 0001608  87.5850 272.5324 15.06853899113062","EPHEMERIS_TYPE":"0","COUNTRY_CODE":"US","CLASSIFICATION_TYPE":"U","PERIOD":"95.563","MEAN_ANOMALY":"272.5324","REV_AT_EPOCH":"11306","NORAD_CAT_ID":"48027","ECCENTRICITY":"0.00016080","FILE":"3877270","SITE":"AFETR","EPOCH":"2023-04-01T07:11:45.706848","CENTER_NAME":"EARTH","INCLINATION":"53.0538","APOAPSIS":"546.936"},{"MEAN_MOTION_DDOT":"0.0000000000000","TIME_SYSTEM":"UTC","RA_OF_ASC_NODE":"45.7086","MEAN_MOTION_DOT":"0.00033204","LAUNCH_DATE":"2021-03-24","ELEMENT_SET_NO":"999","DECAY_DATE":null,"TLE_LINE1":"1 48028U 21024BD  23091.28574839  .00033204  00000-0  22420-2 0  9996","RCS_SIZE":"LARGE","OBJECT_NAME":"STARLINK-2264","ARG_OF_PERICENTER":"129.7470","NORAD_CAT_ID":"48028","REV_AT_EPOCH":"11321","FILE":"3877414","ECCENTRICITY":"0.00013400","SITE":"AFETR","APOAPSIS":"548.370","INCLINATION":"53.0538","CENTER_NAME":"EARTH","EPOCH":"2023-04-01T06:51:28.660896","PERIAPSIS":"546.514","GP_ID":"229253143","REF_FRAME":"TEME","BSTAR":"0.00224200000000","SEMIMAJOR_AXIS":"6925.577","OBJECT_TYPE":"PAYLOAD","OBJECT_ID":"2021-024BD","PERIOD":"95.597","TLE_LINE2":"2 48028  53.0538  45.7086 0001340 129.7470 230.3637 15.06325394113216","COUNTRY_CODE":"US","CLASSIFICATION_TYPE":"U","EPHEMERIS_TYPE":"0","MEAN_ELEMENT_THEORY":"SGP4","MEAN_MOTION":"15.06325394","MEAN_ANOMALY":"230.3637"},{"TIME_SYSTEM":"UTC","RA_OF_ASC_NODE":"107.3881","MEAN_MOTION_DOT":"0.00020550","MEAN_MOTION_DDOT":"0.0000000000000","ARG_OF_PERICENTER":"116.7699","OBJECT_NAME":"STARLINK-2299","DECAY_DATE":null,"ELEMENT_SET_NO":"999","RCS_SIZE":"LARGE","TLE_LINE1":"1 48029U 21024BE  23091.93763979  .00020550  00000-0  13953-2 0  9995","LAUNCH_DATE":"2021-03-24","INCLINATION":"53.0535","CENTER_NAME":"EARTH","APOAPSIS":"548.344","EPOCH":"2023-04-01T22:30:12.077856","SITE":"AFETR","FILE":"3877516","ECCENTRICITY":"0.00015340","REV_AT_EPOCH":"11294","NORAD_CAT_ID":"48029","MEAN_ANOMALY":"243.3447","TLE_LINE2":"2 48029  53.0535 107.3881 0001534 116.7699 243.3447 15.06377731112940","EPHEMERIS_TYPE":"0","COUNTRY_CODE":"US","CLASSIFICATION_TYPE":"U","PERIOD":"95.594","MEAN_MOTION":"15.06377731","MEAN_ELEMENT_THEORY":"SGP4","SEMIMAJOR_AXIS":"6925.417","OBJECT_TYPE":"PAYLOAD","OBJECT_ID":"2021-024BE","PERIAPSIS":"546.219","GP_ID":"229277477","REF_FRAME":"TEME","BSTAR":"0.00139530000000"}];
